From: horizons@ssd.jpl.nasa.gov (Horizons Ephemeris System)
Subject: [Horizons] SMALL BODY #C(500@10)_T(109P/Swift-Tuttle) (1/1)
Date: March 1, 2021 at 10:44:49 AM PST

Automated mail xmit by MAIL_REQUEST, PID= 2416 Mon Mar  1 10:44:49 2021
++++++++++++++++++++++++++++++++ (part 1 of 1)  +++++++++++++++++++++++++++++++


*******************************************************************************
Ephemeris / MAIL_REQUEST Mon Mar  1 10:44:49 2021 Pasadena, USA  / Horizons
*******************************************************************************
Target body name: 109P/Swift-Tuttle               {source: JPL#32}
Center body name: Sun (10)                        {source: DE406}
Center-site name: BODY CENTER
*******************************************************************************
Start time      : A.D. 1989-Dec-11 14:09:36.0000 TDB
Stop  time      : A.D. 1995-Dec-11 14:09:36.0000 TDB
Step-size       : 20160 minutes
*******************************************************************************
Center geodetic : 0.00000000,0.00000000,0.0000000 {E-lon(deg),Lat(deg),Alt(km)}
Center cylindric: 0.00000000,0.00000000,0.0000000 {E-lon(deg),Dxy(km),Dz(km)}
Center radii    : 696000.0 x 696000.0 x 696000.0 k{Equator, meridian, pole}    
Small perturbers: Yes                             {source: SB406-CPV-2}
Output units    : AU-D
Output type     : GEOMETRIC cartesian states
Output format   : 3 (position, velocity, LT, range, range-rate)
Reference frame : Ecliptic of J2000.0
*******************************************************************************
Initial IAU76/J2000 heliocentric ecliptic osculating elements (au, days, deg.):
 EPOCH=  2450000.5 ! 1995-Oct-10.0000000 (TDB)    RMSW= n.a.                  
  EC= .9632257550460384   QR= .9595161550688684   TP= 2448968.4997845562      
  OM= 139.3811920815948   W= 152.9821676305871    IN= 113.4538169971712       
 Equivalent ICRF heliocentric equatorial cartesian coordinates (au, au/d):
  X=-5.961434623170343E+00  Y= 3.700438936760942E+00  Z=-6.922297729429312E+00
 VX=-5.226325508719631E-03 VY= 3.593351825101822E-03 VZ=-2.911438559167841E-03
Comet physical (GM= km^3/s^2; RAD= km):                                        
  GM= n.a.                RAD= 13.                                            
  M1=  4.5      M2=  8.5      k1=  15.    k2=  10.     PHCOF= n.a.            
*******************************************************************************
           JDTDB,            Calendar Date (TDB),                      X,                      Y,                      Z,                     VX,                     VY,                     VZ,                     LT,                     RG,                     RR,
**************************************************************************************************************************************************************************************************************************************************************************
$$SOE
2448964.090000000, A.D. 1992-Dec-07 14:09:36.0000,  7.449303258606150E-01, -3.564274173325173E-01,  4.928310048113620E-01,  4.017131194283374E-03, -1.451544477266752E-02, -1.942478323401867E-02,  5.554247526102691E-03,  9.616881477467148E-01, -1.463000351438088E-03,
2448978.090000000, A.D. 1992-Dec-21 14:09:36.0000,  7.762665230698997E-01, -5.458109374194469E-01,  2.077694590959759E-01,  4.532074281512639E-04, -1.240364449481011E-02, -2.106973736195311E-02,  5.610485605152218E-03,  9.714254692866360E-01,  2.824927629948008E-03,
2448992.090000000, A.D. 1993-Jan-04 14:09:36.0000,  7.593783606761739E-01, -7.014905977923969E-01, -9.055733147301059E-02, -2.748485904633907E-03, -9.814765532337259E-03, -2.133455813117863E-02,  5.993600139432614E-03,  1.037759694600769E+00,  6.484955724719453E-03,
2449006.090000000, A.D. 1993-Jan-18 14:09:36.0000,  7.032921570524207E-01, -8.213370735115988E-01, -3.848706929344247E-01, -5.114838839659394E-03, -7.365553007630889E-03, -2.059078269568479E-02,  6.628875907672702E-03,  1.147754284146162E+00,  9.041277091318117E-03,
2449020.090000000, A.D. 1993-Feb-01 14:09:36.0000,  6.200134036742520E-01, -9.098154672994062E-01, -6.649849740522070E-01, -6.662032648785763E-03, -5.354558695404435E-03, -1.938621277445906E-02,  7.428640919913412E-03,  1.286229303424620E+00,  1.059892738112540E-02,
2449034.090000000, A.D. 1993-Feb-15 14:09:36.0000,  5.195598180596612E-01, -9.734237397407181E-01, -9.272620250611964E-01, -7.607292672453446E-03, -3.803155612128042E-03, -1.808429024927395E-02,  8.324185155803659E-03,  1.441287981200698E+00,  1.146093922640092E-02,
2449048.090000000, A.D. 1993-Mar-01 14:09:36.0000,  4.088335320478999E-01, -1.018059030240310E+00, -1.171685384678036E+00, -8.159362966367793E-03, -2.627782738235170E-03, -1.685174075890530E-02,  9.270445810413804E-03,  1.605127934667115E+00,  1.188961621487157E-02,
2449062.090000000, A.D. 1993-Mar-15 14:09:36.0000,  2.922389139398708E-01, -1.048315155395066E+00, -1.399701598714167E+00, -8.465077816738983E-03, -1.734561740646195E-03, -1.574430157634604E-02,  1.024000021189229E-02,  1.773001075378899E+00,  1.205970295059617E-02,
2449076.090000000, A.D. 1993-Mar-29 14:09:36.0000,  1.725201659014628E-01, -1.067586166266643E+00, -1.613144594798105E+00, -8.617735272521576E-03, -1.047623883262243E-03, -1.476892165042081E-02,  1.121661408289882E-02,  1.942096525349067E+00,  1.207772192140043E-02,
2449090.090000000, A.D. 1993-Apr-12 14:09:36.0000,  5.138462599342926E-02, -1.078349557508275E+00, -1.813796812974016E+00, -8.674899877420962E-03, -5.114213184400289E-04, -1.391456728606202E-02,  1.219077308858163E-02,  2.110766928564467E+00,  1.200697808986262E-02,
2449104.090000000, A.D. 1993-Apr-26 14:09:36.0000, -7.009916008904211E-02, -1.082423484577063E+00, -2.003242970516431E+00, -8.672089393674259E-03, -8.649551507496359E-05, -1.316533595691816E-02,  1.315695133758500E-02,  2.278055506596061E+00,  1.188509129445271E-02,
2449118.090000000, A.D. 1993-May-10 14:09:36.0000, -1.912586809731638E-01, -1.081159131100748E+00, -2.182843079655643E+00, -8.631474255231367E-03,  2.550895626101780E-04, -1.250549757439837E-02,  1.411200230281627E-02,  2.443417455166155E+00,  1.173462633179930E-02,
2449132.090000000, A.D. 1993-May-24 14:09:36.0000, -3.116703287002732E-01, -1.075575999659292E+00, -2.353748883591847E+00, -8.567101422746047E-03,  5.332755564146975E-04, -1.192115743478164E-02,  1.505421389859218E-02,  2.606556335828000E+00,  1.156926612921712E-02,
2449146.090000000, A.D. 1993-Jun-07 14:09:36.0000, -4.310693140611875E-01, -1.066455316384134E+00, -2.516932750401821E+00, -8.488011629048482E-03,  7.624992736247715E-04, -1.140058389448473E-02,  1.598274723275475E-02,  2.767326898907037E+00,  1.139737157065549E-02,
2449160.090000000, A.D. 1993-Jun-21 14:09:36.0000, -5.492938658647202E-01, -1.054404656865759E+00, -2.673217179180818E+00, -8.400115777668419E-03,  9.533552139343474E-04, -1.093405621409981E-02,  1.689729829203445E-02,  2.925676506137385E+00,  1.122407645984817E-02,
2449174.090000000, A.D. 1993-Jul-05 14:09:36.0000, -6.662498422729091E-01, -1.039903296487561E+00, -2.823300981138459E+00, -8.307310202690984E-03,  1.113735319762969E-03, -1.051357346930329E-02,  1.779789125500744E-02,  3.081609343909730E+00,  1.105252015161718E-02,
2449188.090000000, A.D. 1993-Jul-19 14:09:36.0000, -7.818878547229325E-01, -1.023334213194764E+00, -2.967781208525588E+00, -8.212184399720625E-03,  1.249609988359226E-03, -1.013255146913382E-02,  1.868474963237042E-02,  3.235164111901555E+00,  1.088458984309913E-02,
2449202.090000000, A.D. 1993-Aug-02 14:09:36.0000, -8.961883317780710E-01, -1.005007052898350E+00, -3.107171067826577E+00, -8.116466837830568E-03,  1.365557483466926E-03, -9.785555707713178E-03,  1.955821509487556E-02,  3.386399968569741E+00,  1.072138078428196E-02,
2449216.090000000, A.D. 1993-Aug-16 14:09:36.0000, -1.009151586561300E+00, -9.851748972765835E-01, -3.241914412981500E+00, -8.021306027880726E-03,  1.465131641798705E-03, -9.468080058591408E-03,  2.041869595807847E-02,  3.535387611561185E+00,  1.056348330030565E-02,
2449230.090000000, A.D. 1993-Aug-30 14:09:36.0000, -1.120791046390933E+00, -9.640466032313380E-01, -3.372397440196718E+00, -7.927454631017196E-03,  1.551136281947917E-03, -9.176366668576125E-03,  2.126663404997722E-02,  3.682203541022324E+00,  1.041115938966336E-02,
2449244.090000000, A.D. 1993-Sep-13 14:09:36.0000, -1.231128795383898E+00, -9.417959215691644E-01, -3.498958109721849E+00, -7.835413725953085E-03,  1.625803253489747E-03, -8.907261803732155E-03,  2.210248346270718E-02,  3.826926380569140E+00,  1.026446829795010E-02,
2449258.090000000, A.D. 1993-Sep-27 14:09:36.0000, -1.340192567190269E+00, -9.185686416797778E-01, -3.621893798800706E+00, -7.745497868772267E-03,  1.690917119842252E-03, -8.658104849411685E-03,  2.292669761746815E-02,  3.969634637648720E+00,  1.012334261527993E-02,
2449272.090000000, A.D. 1993-Oct-11 14:09:36.0000, -1.448013529570164E+00, -8.944880234868355E-01, -3.741467544296036E+00, -7.657892147592910E-03,  1.747926270942188E-03, -8.426637148324128E-03,  2.373972092000545E-02,  4.110405258730609E+00,  9.987633611849773E-03,
2449286.090000000, A.D. 1993-Oct-25 14:09:36.0000, -1.554624796409795E+00, -8.696589681429632E-01, -3.857913145934605E+00, -7.572694977750605E-03,  1.798015120055852E-03, -8.210929994207458E-03,  2.454198366363624E-02,  4.249312746793147E+00,  9.857145537394939E-03,
2449300.090000000, A.D. 1993-Nov-08 14:09:36.0000, -1.660060409215651E+00, -8.441713294233906E-01, -3.971439371464474E+00, -7.489943177807603E-03,  1.842156410811342E-03, -8.009327690000911E-03,  2.533389919152653E-02,  4.386428669986988E+00,  9.731657585027977E-03,
2449314.090000000, A.D. 1993-Nov-22 14:09:36.0000, -1.764354555734526E+00, -8.181025429598311E-01, -4.082233447856272E+00, -7.409623465116964E-03,  1.881161049914697E-03, -7.820401512807372E-03,  2.611586233352461E-02,  4.521821390981185E+00,  9.610933549085250E-03,
